SKYSAT-A                
1 39418U 13066C   26187.70093888  .00002744  00000+0  15799-3 0  9998
2 39418  97.3802 236.4763 0019870 244.4924 115.4252 15.13083788691438
SKYSAT-B                
1 40072U 14037D   26187.35655464  .00001402  00000+0  15918-3 0  9993
2 40072  98.3848 147.4157 0004837 202.7715 157.3286 14.88077956648814
SKYSAT-C1               
1 41601U 16040C   26187.62426663  .00007669  00000+0  21640-3 0  9995
2 41601  96.9556 218.2931 0001234  14.2930 345.8350 15.36647042560859
SKYSAT-C4               
1 41771U 16058B   26187.58449227  .00014207  00000+0  26186-3 0  9994
2 41771  96.9168 208.5508 0003097 132.5981 227.5533 15.49232259548474
SKYSAT-C5               
1 41772U 16058C   26187.60050565  .00006513  00000+0  19549-3 0  9997
2 41772  97.0458 227.3764 0002418 177.1125 183.0133 15.34762540546726
SKYSAT-C2               
1 41773U 16058D   26187.59401764  .00010488  00000+0  24350-3 0  9999
2 41773  97.0163 208.9626 0002560  24.3070 335.8299 15.42537650548040
SKYSAT-C3               
1 41774U 16058E   26187.60318294  .00019057  00000+0  30220-3 0  9991
2 41774  96.9001 217.7120 0001906 134.7094 225.4316 15.53419232549123
SKYSAT-C11              
1 42987U 17068A   26187.38493124  .00029976  00000+0  38662-3 0  9990
2 42987  97.4373 337.0679 0000617 157.6549 202.4734 15.58959674486235
SKYSAT-C10              
1 42988U 17068B   26187.85149637  .00008544  00000+0  25401-3 0  9995
2 42988  97.4529 324.8970 0001295 109.0995 251.0388 15.34999647485373
SKYSAT-C9               
1 42989U 17068C   26187.83920616  .00009950  00000+0  23461-3 0  9994
2 42989  97.4448 326.0091 0009202  71.4255 288.7991 15.42069291485783
SKYSAT-C8               
1 42990U 17068D   26187.72758050  .00009028  00000+0  24869-3 0  9994
2 42990  97.4547 324.6471 0001193  96.8882 263.2498 15.37375180485319
SKYSAT-C7               
1 42991U 17068E   26187.85198220  .00008141  00000+0  22472-3 0  9999
2 42991  97.4556 325.7640 0006434  48.3351 311.8443 15.37329351485393
SKYSAT-C6               
1 42992U 17068F   26187.84405865  .00007063  00000+0  21494-3 0  9990
2 42992  97.4593 325.6474 0005175  98.0582 262.1248 15.34319314485338
SKYSAT-C12              
1 43797U 18099AR  26187.85958909  .00014343  00000+0  26105-3 0  9995
2 43797  96.9257 210.3120 0005886  89.2485 270.9442 15.49578889424903
